{
  "type": "FeatureCollection",
  "metadata": {
    "generated": "2026-07-21T12:00:00",
    "total_features": 40,
    "source": "OpenStreetMap / Manual compilation for Regina Transit stops"
  },
  "features": [
    {"type": "Feature", "geometry": {"type": "Point", "coordinates": [-104.6189, 50.4452]}, "properties": {"name": "11th Ave & Scarth", "ref": "100", "routes": "1, 4, 9", "shelter": "yes", "bench": "yes", "network": "Regina Transit"}},
    {"type": "Feature", "geometry": {"type": "Point", "coordinates": [-104.6100, 50.4452]}, "properties": {"name": "11th Ave & Rose", "ref": "101", "routes": "1, 4", "shelter": "yes", "bench": "yes", "network": "Regina Transit"}},
    {"type": "Feature", "geometry": {"type": "Point", "coordinates": [-104.6300, 50.4452]}, "properties": {"name": "11th Ave & Albert", "ref": "102", "routes": "2, 9", "shelter": "yes", "bench": "yes", "network": "Regina Transit"}},
    {"type": "Feature", "geometry": {"type": "Point", "coordinates": [-104.6189, 50.4520]}, "properties": {"name": "Victoria Ave & Lorne", "ref": "200", "routes": "3, 5", "shelter": "yes", "bench": "no", "network": "Regina Transit"}},
    {"type": "Feature", "geometry": {"type": "Point", "coordinates": [-104.6189, 50.4600]}, "properties": {"name": "Dewdney Ave & Elphinstone", "ref": "300", "routes": "6, 7", "shelter": "yes", "bench": "yes", "network": "Regina Transit"}},
    {"type": "Feature", "geometry": {"type": "Point", "coordinates": [-104.6250, 50.4620]}, "properties": {"name": "Dewdney Ave & Albert", "ref": "301", "routes": "6, 7", "shelter": "no", "bench": "no", "network": "Regina Transit"}},
    {"type": "Feature", "geometry": {"type": "Point", "coordinates": [-104.6150, 50.4620]}, "properties": {"name": "Dewdney Ave & Broad", "ref": "302", "routes": "4, 14", "shelter": "yes", "bench": "yes", "network": "Regina Transit"}},
    {"type": "Feature", "geometry": {"type": "Point", "coordinates": [-104.6350, 50.4650]}, "properties": {"name": "13th Ave & Retallack (Cathedral)", "ref": "400", "routes": "2, 14", "shelter": "yes", "bench": "yes", "network": "Regina Transit"}},
    {"type": "Feature", "geometry": {"type": "Point", "coordinates": [-104.6250, 50.4530]}, "properties": {"name": "Cathedral @ Scarth", "ref": "401", "routes": "2", "shelter": "no", "bench": "no", "network": "Regina Transit"}},
    {"type": "Feature", "geometry": {"type": "Point", "coordinates": [-104.6360, 50.4180]}, "properties": {"name": "Albert St & Gordon (Albert Park)", "ref": "500", "routes": "9", "shelter": "yes", "bench": "yes", "network": "Regina Transit"}},
    {"type": "Feature", "geometry": {"type": "Point", "coordinates": [-104.6360, 50.4250]}, "properties": {"name": "Albert St & Dewdney S", "ref": "501", "routes": "9, 2", "shelter": "no", "bench": "no", "network": "Regina Transit"}},
    {"type": "Feature", "geometry": {"type": "Point", "coordinates": [-104.6500, 50.4700]}, "properties": {"name": "Walsh Acres @ Normanview", "ref": "600", "routes": "12", "shelter": "yes", "bench": "no", "network": "Regina Transit"}},
    {"type": "Feature", "geometry": {"type": "Point", "coordinates": [-104.6550, 50.4750]}, "properties": {"name": "McCarthy Blvd (Walsh Acres)", "ref": "601", "routes": "12", "shelter": "no", "bench": "no", "network": "Regina Transit"}},
    {"type": "Feature", "geometry": {"type": "Point", "coordinates": [-104.5870, 50.4600]}, "properties": {"name": "Coronation Park @ Broad", "ref": "700", "routes": "4", "shelter": "yes", "bench": "yes", "network": "Regina Transit"}},
    {"type": "Feature", "geometry": {"type": "Point", "coordinates": [-104.5900, 50.4650]}, "properties": {"name": "Coronation Park @ 5th Ave", "ref": "701", "routes": "4, 14", "shelter": "no", "bench": "no", "network": "Regina Transit"}},
    {"type": "Feature", "geometry": {"type": "Point", "coordinates": [-104.5750, 50.4540]}, "properties": {"name": "Eastview @ Ring Road", "ref": "800", "routes": "16", "shelter": "no", "bench": "no", "network": "Regina Transit"}},
    {"type": "Feature", "geometry": {"type": "Point", "coordinates": [-104.5700, 50.4100]}, "properties": {"name": "Gardiner Park @ Victoria E", "ref": "900", "routes": "15", "shelter": "yes", "bench": "yes", "network": "Regina Transit"}},
    {"type": "Feature", "geometry": {"type": "Point", "coordinates": [-104.5750, 50.4150]}, "properties": {"name": "Gardiner Park @ Arcola", "ref": "901", "routes": "15", "shelter": "no", "bench": "no", "network": "Regina Transit"}},
    {"type": "Feature", "geometry": {"type": "Point", "coordinates": [-104.6500, 50.4350]}, "properties": {"name": "Lakeview @ Argyle", "ref": "1000", "routes": "8", "shelter": "no", "bench": "no", "network": "Regina Transit"}},
    {"type": "Feature", "geometry": {"type": "Point", "coordinates": [-104.6450, 50.4380]}, "properties": {"name": "Lakeview @ Calder", "ref": "1001", "routes": "8", "shelter": "no", "bench": "no", "network": "Regina Transit"}},
    {"type": "Feature", "geometry": {"type": "Point", "coordinates": [-104.5900, 50.4750]}, "properties": {"name": "Hillsdale @ Broad St N", "ref": "1100", "routes": "4", "shelter": "yes", "bench": "yes", "network": "Regina Transit"}},
    {"type": "Feature", "geometry": {"type": "Point", "coordinates": [-104.5850, 50.4780]}, "properties": {"name": "Hillsdale @ 1st Ave N", "ref": "1101", "routes": "4", "shelter": "no", "bench": "no", "network": "Regina Transit"}},
    {"type": "Feature", "geometry": {"type": "Point", "coordinates": [-104.6500, 50.4200]}, "properties": {"name": "Whitmore Park @ Lewvan", "ref": "1200", "routes": "8, 10", "shelter": "yes", "bench": "yes", "network": "Regina Transit"}},
    {"type": "Feature", "geometry": {"type": "Point", "coordinates": [-104.6550, 50.4250]}, "properties": {"name": "Whitmore Park @ Courtney", "ref": "1201", "routes": "10", "shelter": "no", "bench": "no", "network": "Regina Transit"}},
    {"type": "Feature", "geometry": {"type": "Point", "coordinates": [-104.6200, 50.4850]}, "properties": {"name": "Sherwood @ Pasqua N", "ref": "1300", "routes": "13", "shelter": "no", "bench": "no", "network": "Regina Transit"}},
    {"type": "Feature", "geometry": {"type": "Point", "coordinates": [-104.6100, 50.4770]}, "properties": {"name": "Dieppe @ Pasqua", "ref": "1400", "routes": "13", "shelter": "no", "bench": "no", "network": "Regina Transit"}},
    {"type": "Feature", "geometry": {"type": "Point", "coordinates": [-104.6200, 50.4050]}, "properties": {"name": "Twin Lakes @ Lewvan", "ref": "1500", "routes": "10", "shelter": "no", "bench": "no", "network": "Regina Transit"}},
    {"type": "Feature", "geometry": {"type": "Point", "coordinates": [-104.5870, 50.4170]}, "properties": {"name": "University Park @ University Dr", "ref": "1600", "routes": "15", "shelter": "yes", "bench": "yes", "network": "Regina Transit"}},
    {"type": "Feature", "geometry": {"type": "Point", "coordinates": [-104.5850, 50.4200]}, "properties": {"name": "University @ Wascana Pkwy", "ref": "1601", "routes": "15", "shelter": "yes", "bench": "no", "network": "Regina Transit"}},
    {"type": "Feature", "geometry": {"type": "Point", "coordinates": [-104.6700, 50.4700]}, "properties": {"name": "Normanview West @ Ritter", "ref": "1700", "routes": "12", "shelter": "no", "bench": "no", "network": "Regina Transit"}},
    {"type": "Feature", "geometry": {"type": "Point", "coordinates": [-104.6700, 50.4050]}, "properties": {"name": "Prairie View @ Lewvan S", "ref": "1800", "routes": "10", "shelter": "no", "bench": "no", "network": "Regina Transit"}},
    {"type": "Feature", "geometry": {"type": "Point", "coordinates": [-104.5780, 50.4400]}, "properties": {"name": "Boothill @ Victoria Ave E", "ref": "1900", "routes": "16", "shelter": "no", "bench": "no", "network": "Regina Transit"}},
    {"type": "Feature", "geometry": {"type": "Point", "coordinates": [-104.5650, 50.4460]}, "properties": {"name": "Regent Park @ Prince of Wales", "ref": "2000", "routes": "16", "shelter": "no", "bench": "no", "network": "Regina Transit"}},
    {"type": "Feature", "geometry": {"type": "Point", "coordinates": [-104.6300, 50.4620]}, "properties": {"name": "North Central @ Robinson", "ref": "2100", "routes": "6, 7", "shelter": "no", "bench": "no", "network": "Regina Transit"}},
    {"type": "Feature", "geometry": {"type": "Point", "coordinates": [-104.6150, 50.4580]}, "properties": {"name": "Core @ Broad & 8th", "ref": "2200", "routes": "1, 4, 14", "shelter": "yes", "bench": "yes", "network": "Regina Transit"}},
    {"type": "Feature", "geometry": {"type": "Point", "coordinates": [-104.6350, 50.4700]}, "properties": {"name": "Rosemont @ Elphinstone N", "ref": "2300", "routes": "7", "shelter": "no", "bench": "no", "network": "Regina Transit"}},
    {"type": "Feature", "geometry": {"type": "Point", "coordinates": [-104.6300, 50.4700]}, "properties": {"name": "Rosemont @ Montague", "ref": "2301", "routes": "7", "shelter": "no", "bench": "no", "network": "Regina Transit"}},
    {"type": "Feature", "geometry": {"type": "Point", "coordinates": [-104.6189, 50.4350]}, "properties": {"name": "Wascana @ Broad S", "ref": "2400", "routes": "4", "shelter": "yes", "bench": "yes", "network": "Regina Transit"}},
    {"type": "Feature", "geometry": {"type": "Point", "coordinates": [-104.6300, 50.4300]}, "properties": {"name": "Mount Royal @ Wascana Cres", "ref": "2500", "routes": "8", "shelter": "no", "bench": "no", "network": "Regina Transit"}},
    {"type": "Feature", "geometry": {"type": "Point", "coordinates": [-104.6100, 50.4500]}, "properties": {"name": "Downtown Transit Hub", "ref": "001", "routes": "All Routes", "shelter": "yes", "bench": "yes", "network": "Regina Transit"}}
  ]
}
